GSAT0221 (GALILEO 25)   
1 43564U 18060A   22213.04868103 -.00000062  00000+0  00000+0 0  9994
2 43564  57.1901  19.9788 0001484 257.7606 102.2396  1.70475929 25025
GSAT0222 (GALILEO 26)   
1 43565U 18060B   22212.68196655 -.00000063  00000+0  00000+0 0  9991
2 43565  57.1930  19.9891 0000989 288.6356  71.3705  1.70475938 25061
GSAT0219 (GALILEO 23)   
1 43566U 18060C   22214.07568105 -.00000061  00000+0  00000+0 0  9998
2 43566  57.1942  19.9536 0000635 282.2141  77.7959  1.70475927 25060
GSAT0220 (GALILEO 24)   
1 43567U 18060D   22212.53606258 -.00000063  00000+0  00000+0 0  9992
2 43567  57.1932  19.9959 0000860 267.2957  92.7114  1.70475882 25023
BEIDOU-3 M13            
1 43622U 18072A   22214.25564365 -.00000003  00000+0  00000+0 0  9994
2 43622  55.5044 109.8165 0006564 296.3760 149.2274  1.86231890 26304
BEIDOU-3 M14            
1 43623U 18072B   22214.26013764 -.00000003  00000+0  00000+0 0  9998
2 43623  55.5067 109.8080 0005263 323.8796 214.9754  1.86231860 26306
GPS BIII-1              
1 43873U 18109A   22213.79768389  .00000034  00000+0  00000+0 0  9996
2 43873  55.0969 148.1061 0019450 192.2986 353.3051  2.00552427 26687
METEOR-M2 2             
1 44387U 19038A   22214.46547520 -.00000015  00000+0  12865-4 0  9993
2 44387  98.7256 174.8823 0002125 114.8125 245.3268 14.23715884159952
GPS BIII-2              
1 44506U 19056A   22213.38667236 -.00000060  00000+0  00000+0 0  9996
2 44506  55.7006  27.2625 0026228 178.1404 330.1655  2.00557915 21676
BEIDOU-3 M23            
1 44542U 19061A   22214.37384105  .00000081  00000+0  00000+0 0  9995
2 44542  54.5739 230.5514 0008523 324.2326  35.7483  1.86231381 19445
BEIDOU-3 M24            
1 44543U 19061B   22213.74469517  .00000076  00000+0  00000+0 0  9991
2 44543  54.5713 230.5427 0006133 307.5129 262.0203  1.86231721 19422
BEIDOU-3 M21            
1 44793U 19078A   22212.97981976 -.00000082  00000+0  10000-3 0  9991
2 44793  54.9579 349.0855 0006044  23.3460 226.5260  1.86232279 18275
BEIDOU-3 M22            
1 44794U 19078B   22214.34563560 -.00000078  00000+0  00000+0 0  9990
2 44794  54.9310 349.0286 0003711  23.0310 334.3016  1.86232753 18292
ELEKTRO-L 3             
1 44903U 19095A   22214.15382514 -.00000091  00000+0  00000+0 0  9993
2 44903   0.0606 149.6209 0001446 348.7778 303.7054  1.00272262  9524
GPS BIII-3              
1 45854U 20041A   22214.03243385 -.00000020  00000+0  00000+0 0  9993
2 45854  55.5551  84.5059 0024178 176.7005  14.3209  2.00558443 15650
GPS BIII-4              
1 46826U 20078A   22213.52650583  .00000022  00000+0  00000+0 0  9999
2 46826  54.5380 268.2674 0022002 189.9865 331.8900  2.00565056 13119
GSAT0223 (GALILEO 27)   
1 49809U 21116A   22214.44430045 -.00000060  00000+0  00000+0 0  9991
2 49809  57.1861  19.8427 0002954 146.4056  34.7571  1.70475993  4058
GSAT0224 (GALILEO 28)   
1 49810U 21116B   22214.26977933 -.00000060  00000+0  00000+0 0  9995
2 49810  57.1880  19.8454 0002773 134.5357  51.9982  1.70475967  4072
